#aV2018 12 27  0  0  0.00000000     288 DD+AD WGS84 FIT  NGA
## 2033 345600.00000000   300.00000000 58479 0.0000000000000
+   31     1  2  3  5  6  7  8  9 10 11 12 13 14 15 16 17 18
+         19 20 21 22 23 24 25 26 27 28 29 30 31 32  0  0  0
+          0  0  0  0  0  0  0  0  0  0  0  0  0  0  0  0  0
+          0  0  0  0  0  0  0  0  0  0  0  0  0  0  0  0  0
+          0  0  0  0  0  0  0  0  0  0  0  0  0  0  0  0  0
++         2  2  2  2  2  2  2  2  2  2  2  2  2  2  2  2  2
++         2  2  2  2  2  2  2  2  2  2  2  2  2  2  0  0  0
++         0  0  0  0  0  0  0  0  0  0  0  0  0  0  0  0  0
++         0  0  0  0  0  0  0  0  0  0  0  0  0  0  0  0  0
++         0  0  0  0  0  0  0  0  0  0  0  0  0  0  0  0  0
%c cc cc ccc ccc cccc cccc cccc cccc ccccc ccccc ccccc ccccc
%c cc cc ccc ccc cccc cccc cccc cccc ccccc ccccc ccccc ccccc
%f  0.0000000  0.000000000  0.00000000000  0.000000000000000
%f  0.0000000  0.000000000  0.00000000000  0.000000000000000
%i    0    0    0    0      0      0      0      0         0
%i    0    0    0    0      0      0      0      0         0
/*      NGA, ST. LOUIS,MO.                                  
/*   EPHEMERIS COMPUTED FROM 2 DAYS OF DATA                 
/*   EPOCHA v3 SMOOTHER                                     
/*   G1762 IERS2010 SATAF SATAPC                            
*  2018 12 27  8 40  0.00000000
P  1  22704.920682  14075.308561    726.451283   -135.424166                    
V  1   -223.367668   2404.572867 -31827.020411     -0.060940                    
P  2  -7480.692743 -18754.890166  17949.596383    -96.884960                    
V  2  19576.969526   9189.661729  18173.362533     -0.102347                    
P  3  13208.742159  11925.839579  19699.060331    172.865449                    
V  3  -2280.773787  24996.961424 -13507.849839      0.029293                    
P  5  -3254.355894 -25742.454643  -5261.423898      0.574699                    
V  5   3386.386496  -6512.639963  30667.121672      0.001598                    
P  6   6440.366828 -13575.557604  21939.441206    308.660351                    
V  6  23507.345908  14700.111938   2220.192699     -0.072002                    
P  7  22585.421060   3346.371874 -13704.002247     62.953341                    
V  7  13593.584985  11423.274036  24302.034458     -0.070345                    
P  8  10469.560281  11220.674763 -21644.425279   -126.989205                    
V  8 -24138.066952  13293.569249  -4598.921311     -0.012972                    
P  9  24359.606622  -6147.506327   8585.432437    478.747864                    
V  9  -8323.315569   7702.675263  28961.742869     -0.042204                    
P 10 -11314.800332  18535.665587 -15117.650647    145.420028                    
V 10  -1329.035384 -19421.436599 -22933.857267     -0.058507                    
P 11  22506.047399  10547.114742  -9583.990756   -683.434869                    
V 11 -12041.058066   2469.513566 -27315.140218      0.049193                    
P 12 -10593.215524 -15756.812242  18454.401642    281.238183                    
V 12   3670.772740 -23453.440693 -17555.130164     -0.030277                    
P 13  -1801.597028 -15312.498304 -21741.940305    -80.288909                    
V 13  25704.268574  -9227.042601   4423.662371      0.012033                    
P 14 -13620.208608  17248.279676  15087.114014    -94.067814                    
V 14 -18030.805508   5387.494015 -23070.281095      0.005553                    
P 15 -14561.752088  -9032.977655 -20622.723770   -334.667842                    
V 15  21179.796343 -14529.939891  -8300.759598      0.014901                    
P 16    371.699386  25773.707458  -5537.689631     -9.067434                    
V 16  -3177.632153   6533.051717  31529.202945     -0.022635                    
P 17  20837.528363 -14844.381569   7326.730584    -13.023969                    
V 17   8798.946528  -1817.261434 -30509.754732      0.052157                    
P 18  17626.620264  17852.937160  -9414.775090      9.732483                    
V 18 -11034.139782  -3386.824995 -28392.474739      0.039002                    
P 19  14573.417798 -16435.276422  14717.536972   -369.655420                    
V 19  18355.172035  -5591.307286 -23841.695047      0.039151                    
P 20 -14504.614597   9333.793698 -20286.489909    520.436263                    
V 20  -3063.459970 -25493.234107  -9725.408490      0.004406                    
P 21 -21205.835076    546.319868 -15125.918581   -280.027444                    
V 21 -16793.886877 -12431.718181  22030.719892      0.067851                    
P 22  11667.885294  18796.510872  14959.187306   -608.574301                    
V 22  -2262.726135  18732.711317 -22072.781803     -0.090360                    
P 23  21005.071908   2349.004088  16633.018142   -202.342005                    
V 23 -17097.819577  11350.743874  19956.291630      0.011108                    
P 24 -21278.516304 -15684.825281  -4143.152063    -60.035169                    
V 24   5938.412297   -193.898713 -30496.221055     -0.004706                    
P 25 -14647.464574  -3566.971831  21695.664600   -697.189188                    
V 25   1484.595758 -27907.460934  -3310.191989     -0.054936                    
P 26  -4116.157315  25662.921123   5021.875449     79.387140                    
V 26  -2969.683068  -6488.099624  30833.702373      0.107270                    
P 27   -362.483131  16205.704328 -21065.597947    -38.876991                    
V 27 -23902.328885  11627.587757   9663.719376     -0.061529                    
P 28  12723.350278 -16768.527952 -15627.033205    759.970734                    
V 28  -1183.996563  20941.268167 -22472.332449      0.012270                    
P 29 -23892.723947   2333.014816  11343.325572    306.566175                    
V 29  12454.200540  -7437.934724  27713.688564     -0.083123                    
P 30  15858.924112  -6792.571067 -20218.878842    -26.234990                    
V 30  20411.551137  15707.749215  10553.944095     -0.059708                    
P 31  -4216.819241  15155.666406  21355.826931     69.981215                    
V 31 -22865.598249 -14657.210246   6322.091459     -0.026148                    
P 32 -18835.924032  16676.506414   8397.191275   -301.347596                    
V 32 -10720.092029   2504.700129 -29249.593160      0.162134                    
EOF
